{
  "type": "FeatureCollection",
  "features": [
    {
      "type": "Feature",
      "properties": {
        "norad_id": 38857,
        "name": "GSAT0103 (GALILEO-FM3)",
        "group": "gnss",
        "lat": -37.66705787202405,
        "lon": 74.87363557893728,
        "alt_km": 23221.28817848846,
        "timestamp": "2025-12-12T20:43:07.277854+00:00",
        "meta_object_name": "GSAT0103 (GALILEO-FM3)",
        "meta_object_id": "2012-055A",
        "meta_epoch": "2025-12-10T14:16:18.944544",
        "meta_mean_motion": 1.70473311,
        "meta_eccentricity": 0.00025926,
        "meta_inclination": 55.6913,
        "meta_ra_of_asc_node": 106.7254,
        "meta_arg_of_pericenter": 268.6178,
        "meta_mean_anomaly": 91.322,
        "meta_ephemeris_type": 0,
        "meta_classification_type": "U",
        "meta_norad_cat_id": 38857,
        "meta_element_set_no": 999,
        "meta_rev_at_epoch": 8179,
        "meta_bstar": 0,
        "meta_mean_motion_dot": 1.1e-07,
        "meta_mean_motion_ddot": 0,
        "tle_line1": "1 38857U 12055A   25344.59466371  .00000011  00000+0  00000+0 0  9993",
        "tle_line2": "2 38857  55.6913 106.7254 0002592 268.6178  91.3220  1.70473311 81792"
      },
      "geometry": {
        "type": "Point",
        "coordinates": [
          74.87363557893728,
          -37.66705787202405
        ]
      }
    },
    {
      "type": "Feature",
      "properties": {
        "norad_id": 38953,
        "name": "BEIDOU-2 G6 (C02)",
        "group": "gnss",
        "lat": 2.6124846822425694,
        "lon": 116.60232051400462,
        "alt_km": 35798.32085358945,
        "timestamp": "2025-12-12T20:43:07.277867+00:00",
        "meta_object_name": "BEIDOU-2 G6 (C02)",
        "meta_object_id": "2012-059A",
        "meta_epoch": "2025-12-11T20:45:33.415776",
        "meta_mean_motion": 1.00269666,
        "meta_eccentricity": 0.0007739,
        "meta_inclination": 3.9473,
        "meta_ra_of_asc_node": 75.5133,
        "meta_arg_of_pericenter": 289.4412,
        "meta_mean_anomaly": 111.2689,
        "meta_ephemeris_type": 0,
        "meta_classification_type": "U",
        "meta_norad_cat_id": 38953,
        "meta_element_set_no": 999,
        "meta_rev_at_epoch": 4803,
        "meta_bstar": 0,
        "meta_mean_motion_dot": -1.67e-06,
        "meta_mean_motion_ddot": 0,
        "tle_line1": "1 38953U 12059A   25345.86497009 -.00000167  00000+0  00000+0 0  9990",
        "tle_line2": "2 38953   3.9473  75.5133 0007739 289.4412 111.2689  1.00269666 48035"
      },
      "geometry": {
        "type": "Point",
        "coordinates": [
          116.60232051400462,
          2.6124846822425694
        ]
      }
    },
    {
      "type": "Feature",
      "properties": {
        "norad_id": 38977,
        "name": "LUCH 5B (SDCM/PRN 125)",
        "group": "gnss",
        "lat": -5.815546564418306,
        "lon": 16.72423090244096,
        "alt_km": 35806.909669139764,
        "timestamp": "2025-12-12T20:43:07.277880+00:00",
        "meta_object_name": "LUCH 5B (SDCM/PRN 125)",
        "meta_object_id": "2012-061A",
        "meta_epoch": "2025-12-11T23:42:18.523296",
        "meta_mean_motion": 1.00272282,
        "meta_eccentricity": 0.0007194,
        "meta_inclination": 10.0801,
        "meta_ra_of_asc_node": 51.7145,
        "meta_arg_of_pericenter": 192.9773,
        "meta_mean_anomaly": 175.4845,
        "meta_ephemeris_type": 0,
        "meta_classification_type": "U",
        "meta_norad_cat_id": 38977,
        "meta_element_set_no": 999,
        "meta_rev_at_epoch": 4773,
        "meta_bstar": 0,
        "meta_mean_motion_dot": -1.33e-06,
        "meta_mean_motion_ddot": 0,
        "tle_line1": "1 38977U 12061A   25345.98771439 -.00000133  00000+0  00000+0 0  9997",
        "tle_line2": "2 38977  10.0801  51.7145 0007194 192.9773 175.4845  1.00272282 47737"
      },
      "geometry": {
        "type": "Point",
        "coordinates": [
          16.72423090244096,
          -5.815546564418306
        ]
      }
    },
    {
      "type": "Feature",
      "properties": {
        "norad_id": 39155,
        "name": "COSMOS 2485 (747)",
        "group": "gnss",
        "lat": -9.731934487386248,
        "lon": -95.6148747911118,
        "alt_km": 19082.45866438112,
        "timestamp": "2025-12-12T20:43:07.277894+00:00",
        "meta_object_name": "COSMOS 2485 (747)",
        "meta_object_id": "2013-019A",
        "meta_epoch": "2025-12-10T17:41:35.437344",
        "meta_mean_motion": 2.13102878,
        "meta_eccentricity": 0.00245732,
        "meta_inclination": 65.3124,
        "meta_ra_of_asc_node": 79.9346,
        "meta_arg_of_pericenter": 229.2052,
        "meta_mean_anomaly": 130.5984,
        "meta_ephemeris_type": 0,
        "meta_classification_type": "U",
        "meta_norad_cat_id": 39155,
        "meta_element_set_no": 999,
        "meta_rev_at_epoch": 9826,
        "meta_bstar": 0,
        "meta_mean_motion_dot": -2.2e-07,
        "meta_mean_motion_ddot": 0,
        "tle_line1": "1 39155U 13019A   25344.73721571 -.00000022  00000+0  00000+0 0  9991",
        "tle_line2": "2 39155  65.3124  79.9346 0024573 229.2052 130.5984  2.13102878 98264"
      },
      "geometry": {
        "type": "Point",
        "coordinates": [
          -95.6148747911118,
          -9.731934487386248
        ]
      }
    },
    {
      "type": "Feature",
      "properties": {
        "norad_id": 39166,
        "name": "GPS BIIF-4  (PRN 27)",
        "group": "gnss",
        "lat": 50.25227996160908,
        "lon": 38.07667966779919,
        "alt_km": 19994.588935049633,
        "timestamp": "2025-12-12T20:43:07.277905+00:00",
        "meta_object_name": "GPS BIIF-4  (PRN 27)",
        "meta_object_id": "2013-023A",
        "meta_epoch": "2025-12-11T05:15:59.310144",
        "meta_mean_motion": 2.0056514,
        "meta_eccentricity": 0.01377988,
        "meta_inclination": 54.6533,
        "meta_ra_of_asc_node": 276.63,
        "meta_arg_of_pericenter": 48.5969,
        "meta_mean_anomaly": 312.5932,
        "meta_ephemeris_type": 0,
        "meta_classification_type": "U",
        "meta_norad_cat_id": 39166,
        "meta_element_set_no": 999,
        "meta_rev_at_epoch": 9211,
        "meta_bstar": 0,
        "meta_mean_motion_dot": -6.7e-07,
        "meta_mean_motion_ddot": 0,
        "tle_line1": "1 39166U 13023A   25345.21943646 -.00000067  00000+0  00000+0 0  9990",
        "tle_line2": "2 39166  54.6533 276.6300 0137798  48.5969 312.5932  2.00565140 92114"
      },
      "geometry": {
        "type": "Point",
        "coordinates": [
          38.07667966779919,
          50.25227996160908
        ]
      }
    },
    {
      "type": "Feature",
      "properties": {
        "norad_id": 39199,
        "name": "IRNSS-1A",
        "group": "gnss",
        "lat": 12.175789132779457,
        "lon": 84.27105426401097,
        "alt_km": 35870.10085099206,
        "timestamp": "2025-12-12T20:43:07.277919+00:00",
        "meta_object_name": "IRNSS-1A",
        "meta_object_id": "2013-034A",
        "meta_epoch": "2025-12-02T19:49:26.431104",
        "meta_mean_motion": 1.00279053,
        "meta_eccentricity": 0.00216608,
        "meta_inclination": 35.2852,
        "meta_ra_of_asc_node": 66.6964,
        "meta_arg_of_pericenter": 185.4059,
        "meta_mean_anomaly": 172.3398,
        "meta_ephemeris_type": 0,
        "meta_classification_type": "U",
        "meta_norad_cat_id": 39199,
        "meta_element_set_no": 999,
        "meta_rev_at_epoch": 4539,
        "meta_bstar": 0,
        "meta_mean_motion_dot": 6.5e-07,
        "meta_mean_motion_ddot": 0,
        "tle_line1": "1 39199U 13034A   25336.82600036  .00000065  00000+0  00000+0 0  9995",
        "tle_line2": "2 39199  35.2852  66.6964 0021660 185.4059 172.3398  1.00279053 45393"
      },
      "geometry": {
        "type": "Point",
        "coordinates": [
          84.27105426401097,
          12.175789132779457
        ]
      }
    },
    {
      "type": "Feature",
      "properties": {
        "norad_id": 39533,
        "name": "GPS BIIF-5  (PRN 30)",
        "group": "gnss",
        "lat": 49.21301996553579,
        "lon": -81.77082760885818,
        "alt_km": 20268.52575248546,
        "timestamp": "2025-12-12T20:43:07.277932+00:00",
        "meta_object_name": "GPS BIIF-5  (PRN 30)",
        "meta_object_id": "2014-008A",
        "meta_epoch": "2025-12-11T17:05:22.085952",
        "meta_mean_motion": 2.00574377,
        "meta_eccentricity": 0.0079189,
        "meta_inclination": 53.6311,
        "meta_ra_of_asc_node": 156.9665,
        "meta_arg_of_pericenter": 226.4865,
        "meta_mean_anomaly": 132.8633,
        "meta_ephemeris_type": 0,
        "meta_classification_type": "U",
        "meta_norad_cat_id": 39533,
        "meta_element_set_no": 999,
        "meta_rev_at_epoch": 8592,
        "meta_bstar": 0,
        "meta_mean_motion_dot": 8.7e-07,
        "meta_mean_motion_ddot": 0,
        "tle_line1": "1 39533U 14008A   25345.71206118  .00000087  00000+0  00000+0 0  9994",
        "tle_line2": "2 39533  53.6311 156.9665 0079189 226.4865 132.8633  2.00574377 85924"
      },
      "geometry": {
        "type": "Point",
        "coordinates": [
          -81.77082760885818,
          49.21301996553579
        ]
      }
    }
  ]
}